GLOBALSTAR M057         
1 25943U 99058A   25254.86141324 -.00000092  00000+0  93804-5 0  9991
2 25943  51.9974 102.2223 0002405 172.8514 187.2370 12.24826802177559
GLOBALSTAR M059         
1 25944U 99058B   25254.54195909 -.00000008  00000+0  96627-3 0  9996
2 25944  52.0046 333.5574 0000912 121.9161 250.7841 11.99985748584416
GLOBALSTAR M056         
1 25945U 99058C   25254.55061106 -.00000083  00000+0  50124-4 0  9995
2 25945  51.9991 333.2781 0000752  25.2946  80.3218 12.04779024173032
GLOBALSTAR M031         
1 25946U 99058D   25254.65998625 -.00000049  00000+0  42495-3 0  9995
2 25946  51.9949 220.1286 0001612   4.0240 166.9064 12.16040277175067
GLOBALSTAR M039         
1 25961U 99062A   25254.62953996 -.00000075  00000+0  15990-3 0  9995
2 25961  51.9875   5.4282 0002907 165.9848 194.1100 12.62331910191139
GLOBALSTAR M034         
1 25962U 99062B   25254.90503605 -.00000117  00000+0 -56977-3 0  9993
2 25962  51.9864 145.9707 0013497 203.6176 238.8663 11.79448017148620
GLOBALSTAR M029         
1 25963U 99062C   25254.67697801 -.00000070  00000+0  20062-3 0  9993
2 25963  51.9782 221.1509 0002465 296.3089 234.9661 11.99900752179509
GLOBALSTAR M061         
1 25964U 99062D   25254.49551419 -.00000030  00000+0  82050-3 0  9999
2 25964  51.9825 332.2184 0006426 126.9776 245.9421 11.76776230131346
